[{"OBJECT_NAME":"STARLINK-37286","OBJECT_ID":"2026-068E","EPOCH":"2026-04-20T15:25:15.875904","MEAN_MOTION":15.80947373,"ECCENTRICITY":8.948e-5,"INCLINATION":53.1575,"RA_OF_ASC_NODE":299.0427,"ARG_OF_PERICENTER":140.8305,"MEAN_ANOMALY":219.2783,"EPHEMERIS_TYPE":0,"CLASSIFICATION_TYPE":"U","NORAD_CAT_ID":68512,"ELEMENT_SET_NO":999,"REV_AT_EPOCH":330,"BSTAR":0.0011230836,"MEAN_MOTION_DOT":0.00227684,"MEAN_MOTION_DDOT":0},{"OBJECT_NAME":"STARLINK-36250","OBJECT_ID":"2026-068F","EPOCH":"2026-04-20T15:23:08.091168","MEAN_MOTION":15.80936299,"ECCENTRICITY":8.872e-5,"INCLINATION":53.1576,"RA_OF_ASC_NODE":299.0328,"ARG_OF_PERICENTER":97.1967,"MEAN_ANOMALY":262.9156,"EPHEMERIS_TYPE":0,"CLASSIFICATION_TYPE":"U","NORAD_CAT_ID":68513,"ELEMENT_SET_NO":999,"REV_AT_EPOCH":330,"BSTAR":0.0011559767,"MEAN_MOTION_DOT":0.00234439,"MEAN_MOTION_DDOT":0},{"OBJECT_NAME":"STARLINK-37251","OBJECT_ID":"2026-068G","EPOCH":"2026-04-20T15:23:08.076480","MEAN_MOTION":15.80965851,"ECCENTRICITY":4.213e-5,"INCLINATION":53.1577,"RA_OF_ASC_NODE":299.032,"ARG_OF_PERICENTER":67.6067,"MEAN_ANOMALY":292.5,"EPHEMERIS_TYPE":0,"CLASSIFICATION_TYPE":"U","NORAD_CAT_ID":68514,"ELEMENT_SET_NO":999,"REV_AT_EPOCH":330,"BSTAR":0.0016463469,"MEAN_MOTION_DOT":0.00338779,"MEAN_MOTION_DDOT":0},{"OBJECT_NAME":"STARLINK-36293","OBJECT_ID":"2026-068H","EPOCH":"2026-04-20T16:53:03.597504","MEAN_MOTION":15.80955263,"ECCENTRICITY":4.702e-5,"INCLINATION":53.1571,"RA_OF_ASC_NODE":298.7105,"ARG_OF_PERICENTER":112.1753,"MEAN_ANOMALY":247.932,"EPHEMERIS_TYPE":0,"CLASSIFICATION_TYPE":"U","NORAD_CAT_ID":68515,"ELEMENT_SET_NO":999,"REV_AT_EPOCH":331,"BSTAR":0.0011188146,"MEAN_MOTION_DOT":0.00226882,"MEAN_MOTION_DDOT":0},{"OBJECT_NAME":"STARLINK-36290","OBJECT_ID":"2026-068J","EPOCH":"2026-04-20T03:11:33.990720","MEAN_MOTION":15.80977137,"ECCENTRICITY":4.283e-5,"INCLINATION":53.1575,"RA_OF_ASC_NODE":301.5533,"ARG_OF_PERICENTER":106.2874,"MEAN_ANOMALY":253.8196,"EPHEMERIS_TYPE":0,"CLASSIFICATION_TYPE":"U","NORAD_CAT_ID":68516,"ELEMENT_SET_NO":999,"REV_AT_EPOCH":322,"BSTAR":0.0012391311,"MEAN_MOTION_DOT":0.00252364,"MEAN_MOTION_DDOT":0},{"OBJECT_NAME":"STARLINK-36298","OBJECT_ID":"2026-068K","EPOCH":"2026-04-20T15:18:47.565792","MEAN_MOTION":15.83005494,"ECCENTRICITY":0.00098489,"INCLINATION":53.1569,"RA_OF_ASC_NODE":299.0134,"ARG_OF_PERICENTER":264.3723,"MEAN_ANOMALY":95.6177,"EPHEMERIS_TYPE":0,"CLASSIFICATION_TYPE":"U","NORAD_CAT_ID":68517,"ELEMENT_SET_NO":999,"REV_AT_EPOCH":330,"BSTAR":0.0025042531,"MEAN_MOTION_DOT":0.00584505,"MEAN_MOTION_DDOT":0},{"OBJECT_NAME":"STARLINK-36857","OBJECT_ID":"2026-068L","EPOCH":"2026-04-20T10:43:31.250208","MEAN_MOTION":15.8091048,"ECCENTRICITY":6.731e-5,"INCLINATION":53.1574,"RA_OF_ASC_NODE":299.9527,"ARG_OF_PERICENTER":104.1456,"MEAN_ANOMALY":255.9641,"EPHEMERIS_TYPE":0,"CLASSIFICATION_TYPE":"U","NORAD_CAT_ID":68518,"ELEMENT_SET_NO":999,"REV_AT_EPOCH":327,"BSTAR":0.00093076372,"MEAN_MOTION_DOT":0.00187368,"MEAN_MOTION_DDOT":0},{"OBJECT_NAME":"STARLINK-36326","OBJECT_ID":"2026-068M","EPOCH":"2026-04-20T15:18:47.243520","MEAN_MOTION":15.81013698,"ECCENTRICITY":5.136e-5,"INCLINATION":53.1569,"RA_OF_ASC_NODE":299.0115,"ARG_OF_PERICENTER":90.0543,"MEAN_ANOMALY":270.0539,"EPHEMERIS_TYPE":0,"CLASSIFICATION_TYPE":"U","NORAD_CAT_ID":68519,"ELEMENT_SET_NO":999,"REV_AT_EPOCH":330,"BSTAR":0.0021923742,"MEAN_MOTION_DOT":0.00458809,"MEAN_MOTION_DDOT":0},{"OBJECT_NAME":"STARLINK-37126","OBJECT_ID":"2026-068N","EPOCH":"2026-04-20T10:43:31.247616","MEAN_MOTION":15.80907833,"ECCENTRICITY":7.259e-5,"INCLINATION":53.1575,"RA_OF_ASC_NODE":299.9526,"ARG_OF_PERICENTER":114.8669,"MEAN_ANOMALY":245.2429,"EPHEMERIS_TYPE":0,"CLASSIFICATION_TYPE":"U","NORAD_CAT_ID":68520,"ELEMENT_SET_NO":999,"REV_AT_EPOCH":327,"BSTAR":0.00094673524,"MEAN_MOTION_DOT":0.00190644,"MEAN_MOTION_DDOT":0},{"OBJECT_NAME":"STARLINK-36347","OBJECT_ID":"2026-068P","EPOCH":"2026-04-20T15:14:27.871584","MEAN_MOTION":15.80927014,"ECCENTRICITY":0.00030496,"INCLINATION":53.1571,"RA_OF_ASC_NODE":298.9921,"ARG_OF_PERICENTER":296.8462,"MEAN_ANOMALY":63.2248,"EPHEMERIS_TYPE":0,"CLASSIFICATION_TYPE":"U","NORAD_CAT_ID":68521,"ELEMENT_SET_NO":999,"REV_AT_EPOCH":330,"BSTAR":0.0019850255,"MEAN_MOTION_DOT":0.00411355,"MEAN_MOTION_DDOT":0},{"OBJECT_NAME":"STARLINK-36322","OBJECT_ID":"2026-068Q","EPOCH":"2026-04-20T15:14:28.052160","MEAN_MOTION":15.80922151,"ECCENTRICITY":5.322e-5,"INCLINATION":53.1572,"RA_OF_ASC_NODE":298.9922,"ARG_OF_PERICENTER":88.8521,"MEAN_ANOMALY":271.2563,"EPHEMERIS_TYPE":0,"CLASSIFICATION_TYPE":"U","NORAD_CAT_ID":68522,"ELEMENT_SET_NO":999,"REV_AT_EPOCH":330,"BSTAR":0.00093066265,"MEAN_MOTION_DOT":0.00187451,"MEAN_MOTION_DDOT":0},{"OBJECT_NAME":"STARLINK-37208","OBJECT_ID":"2026-068R","EPOCH":"2026-04-20T15:13:22.732896","MEAN_MOTION":15.8095969,"ECCENTRICITY":0.00017345,"INCLINATION":53.1575,"RA_OF_ASC_NODE":298.9869,"ARG_OF_PERICENTER":200.7864,"MEAN_ANOMALY":159.3089,"EPHEMERIS_TYPE":0,"CLASSIFICATION_TYPE":"U","NORAD_CAT_ID":68523,"ELEMENT_SET_NO":999,"REV_AT_EPOCH":330,"BSTAR":0.0013630877,"MEAN_MOTION_DOT":0.0027829,"MEAN_MOTION_DDOT":0},{"OBJECT_NAME":"STARLINK-36302","OBJECT_ID":"2026-068S","EPOCH":"2026-04-20T15:11:13.556256","MEAN_MOTION":15.80938124,"ECCENTRICITY":1.221e-5,"INCLINATION":53.1579,"RA_OF_ASC_NODE":298.9788,"ARG_OF_PERICENTER":174.6845,"MEAN_ANOMALY":185.4179,"EPHEMERIS_TYPE":0,"CLASSIFICATION_TYPE":"U","NORAD_CAT_ID":68524,"ELEMENT_SET_NO":999,"REV_AT_EPOCH":330,"BSTAR":0.0010483295,"MEAN_MOTION_DOT":0.00212011,"MEAN_MOTION_DDOT":0},{"OBJECT_NAME":"STARLINK-36311","OBJECT_ID":"2026-068T","EPOCH":"2026-04-20T12:06:59.597280","MEAN_MOTION":15.80929685,"ECCENTRICITY":9.233e-5,"INCLINATION":53.1564,"RA_OF_ASC_NODE":299.6011,"ARG_OF_PERICENTER":140.2568,"MEAN_ANOMALY":219.8523,"EPHEMERIS_TYPE":0,"CLASSIFICATION_TYPE":"U","NORAD_CAT_ID":68525,"ELEMENT_SET_NO":999,"REV_AT_EPOCH":328,"BSTAR":0.0012811204,"MEAN_MOTION_DOT":0.00260614,"MEAN_MOTION_DDOT":0},{"OBJECT_NAME":"STARLINK-37178","OBJECT_ID":"2026-068U","EPOCH":"2026-04-20T15:10:07.319424","MEAN_MOTION":15.81091727,"ECCENTRICITY":8.129e-5,"INCLINATION":53.1573,"RA_OF_ASC_NODE":298.9721,"ARG_OF_PERICENTER":352.8139,"MEAN_ANOMALY":7.2872,"EPHEMERIS_TYPE":0,"CLASSIFICATION_TYPE":"U","NORAD_CAT_ID":68526,"ELEMENT_SET_NO":999,"REV_AT_EPOCH":330,"BSTAR":0.0023347118,"MEAN_MOTION_DOT":0.00492325,"MEAN_MOTION_DDOT":0},{"OBJECT_NAME":"STARLINK-37248","OBJECT_ID":"2026-068V","EPOCH":"2026-04-20T15:09:03.828384","MEAN_MOTION":15.80965828,"ECCENTRICITY":0.00011667,"INCLINATION":53.1572,"RA_OF_ASC_NODE":298.9671,"ARG_OF_PERICENTER":144.1556,"MEAN_ANOMALY":215.9545,"EPHEMERIS_TYPE":0,"CLASSIFICATION_TYPE":"U","NORAD_CAT_ID":68527,"ELEMENT_SET_NO":999,"REV_AT_EPOCH":330,"BSTAR":0.001586875,"MEAN_MOTION_DOT":0.00326007,"MEAN_MOTION_DDOT":0},{"OBJECT_NAME":"STARLINK-37241","OBJECT_ID":"2026-068W","EPOCH":"2026-04-20T12:03:44.985600","MEAN_MOTION":15.80944427,"ECCENTRICITY":3.333e-5,"INCLINATION":53.1575,"RA_OF_ASC_NODE":299.5862,"ARG_OF_PERICENTER":69.4347,"MEAN_ANOMALY":290.6712,"EPHEMERIS_TYPE":0,"CLASSIFICATION_TYPE":"U","NORAD_CAT_ID":68528,"ELEMENT_SET_NO":999,"REV_AT_EPOCH":328,"BSTAR":0.0014744431,"MEAN_MOTION_DOT":0.00301716,"MEAN_MOTION_DDOT":0},{"OBJECT_NAME":"STARLINK-37244","OBJECT_ID":"2026-068X","EPOCH":"2026-04-20T16:39:00.705024","MEAN_MOTION":15.81009088,"ECCENTRICITY":7.15e-5,"INCLINATION":53.1574,"RA_OF_ASC_NODE":298.6453,"ARG_OF_PERICENTER":62.0949,"MEAN_ANOMALY":298.0146,"EPHEMERIS_TYPE":0,"CLASSIFICATION_TYPE":"U","NORAD_CAT_ID":68529,"ELEMENT_SET_NO":999,"REV_AT_EPOCH":331,"BSTAR":0.0016691437,"MEAN_MOTION_DOT":0.00344382,"MEAN_MOTION_DDOT":0},{"OBJECT_NAME":"STARLINK-36285","OBJECT_ID":"2026-068Y","EPOCH":"2026-04-20T16:36:51.189696","MEAN_MOTION":15.80990322,"ECCENTRICITY":8.084e-5,"INCLINATION":53.1573,"RA_OF_ASC_NODE":298.6347,"ARG_OF_PERICENTER":149.5542,"MEAN_ANOMALY":210.5528,"EPHEMERIS_TYPE":0,"CLASSIFICATION_TYPE":"U","NORAD_CAT_ID":68530,"ELEMENT_SET_NO":999,"REV_AT_EPOCH":331,"BSTAR":0.001464806,"MEAN_MOTION_DOT":0.00300313,"MEAN_MOTION_DDOT":0},{"OBJECT_NAME":"STARLINK-36294","OBJECT_ID":"2026-068Z","EPOCH":"2026-04-20T15:04:44.601600","MEAN_MOTION":15.80944629,"ECCENTRICITY":0.00010749,"INCLINATION":53.157,"RA_OF_ASC_NODE":298.9466,"ARG_OF_PERICENTER":143.3361,"MEAN_ANOMALY":216.7736,"EPHEMERIS_TYPE":0,"CLASSIFICATION_TYPE":"U","NORAD_CAT_ID":68531,"ELEMENT_SET_NO":999,"REV_AT_EPOCH":330,"BSTAR":0.0012193122,"MEAN_MOTION_DOT":0.00247804,"MEAN_MOTION_DDOT":0},{"OBJECT_NAME":"STARLINK-36249","OBJECT_ID":"2026-068AA","EPOCH":"2026-04-20T15:02:34.845216","MEAN_MOTION":15.81064526,"ECCENTRICITY":2.939e-5,"INCLINATION":53.1573,"RA_OF_ASC_NODE":298.9366,"ARG_OF_PERICENTER":166.6674,"MEAN_ANOMALY":193.4357,"EPHEMERIS_TYPE":0,"CLASSIFICATION_TYPE":"U","NORAD_CAT_ID":68532,"ELEMENT_SET_NO":999,"REV_AT_EPOCH":330,"BSTAR":0.0022822471,"MEAN_MOTION_DOT":0.0047998,"MEAN_MOTION_DDOT":0},{"OBJECT_NAME":"STARLINK-36252","OBJECT_ID":"2026-068AB","EPOCH":"2026-04-20T02:54:17.197632","MEAN_MOTION":15.80969058,"ECCENTRICITY":7.991e-5,"INCLINATION":53.1572,"RA_OF_ASC_NODE":301.4708,"ARG_OF_PERICENTER":26.2642,"MEAN_ANOMALY":333.8421,"EPHEMERIS_TYPE":0,"CLASSIFICATION_TYPE":"U","NORAD_CAT_ID":68533,"ELEMENT_SET_NO":999,"REV_AT_EPOCH":322,"BSTAR":0.0012242584,"MEAN_MOTION_DOT":0.00249134,"MEAN_MOTION_DDOT":0},{"OBJECT_NAME":"STARLINK-36299","OBJECT_ID":"2026-068AC","EPOCH":"2026-04-20T11:58:21.195552","MEAN_MOTION":15.80905868,"ECCENTRICITY":0.00013338,"INCLINATION":53.1576,"RA_OF_ASC_NODE":299.561,"ARG_OF_PERICENTER":76.9044,"MEAN_ANOMALY":283.2128,"EPHEMERIS_TYPE":0,"CLASSIFICATION_TYPE":"U","NORAD_CAT_ID":68534,"ELEMENT_SET_NO":999,"REV_AT_EPOCH":328,"BSTAR":0.00088987061,"MEAN_MOTION_DOT":0.00178888,"MEAN_MOTION_DDOT":0}]
